RAVAN                   
1 41849U 16067B   23176.38674777  .00010552  00000+0  72677-3 0  9998
2 41849  98.0375 331.1687 0016611 158.3291 201.8641 15.05950234362000
CELTEE 1                
1 41850U 16067C   23175.41182208  .00005295  00000+0  41199-3 0  9999
2 41850  98.0678 323.8185 0001337 157.6662 202.4620 15.01718904361502
OPTICUBE 04             
1 41851U 16067D   23176.40655233  .00003627  00000+0  29781-3 0  9993
2 41851  98.0441 323.0018 0012795 168.7502 191.4008 14.99809812361562
AEROCUBE 8D             
1 41852U 16067E   23175.38043555  .00005118  00000+0  39468-3 0  9998
2 41852  98.0665 322.8964 0004728 219.7855 140.3022 15.02072105361441
AEROCUBE 8C             
1 41853U 16067F   23175.90651732  .00006025  00000+0  46464-3 0  9991
2 41853  98.0450 322.9628 0009006 158.3713 201.7893 15.01964503361514
PROMETHEUS 2-1          
1 41854U 16067G   23175.67248650  .00011315  00000+0  78324-3 0  9995
2 41854  98.0701 325.7815 0016985 186.4944 173.6064 15.05739300361612
PROMETHEUS 2-3          
1 41855U 16067H   23176.13091785  .00012569  00000+0  87019-3 0  9996
2 41855  98.0616 326.1129 0014330 193.9597 166.1234 15.05736777361688
INS-1B                  
1 41954U 17008G   23176.43464881  .00103470  00000+0  13272-2 0  9997
2 41954  97.1978 237.1669 0001744 308.0650  52.0449 15.58796866354162
DIDO-2                  
1 42000U 17008BE  23175.70855400  .00022103  00000+0  55156-3 0  9991
2 42000  97.1997 231.6656 0005583  25.2370 334.9149 15.40182473353097
PEASSS                  
1 42015U 17008BV  23176.14588086  .00069502  00000+0  11074-2 0  9993
2 42015  97.2053 239.6489 0001921   0.6045 359.5210 15.53019218354090
AL-FARABI 1             
1 42016U 17008BW  23176.16112582  .00377019  00000+0  17120-2 0  9993
2 42016  97.2065 247.6670 0004802 235.1731 124.9087 15.82905573354684
NAYIF-1 (EO-88)         
1 42017U 17008BX  23176.10773608  .00465961  00000+0  17821-2 0  9992
2 42017  97.2029 247.8679 0005492 238.5591 121.5144 15.86317946354720
UCLSAT                  
1 42765U 17036A   23176.38522207  .00083926  00000+0  13582-2 0  9997
2 42765  97.1405 215.2770 0006098  78.5620 281.6318 15.52511098334564
AALTO-1                 
1 42775U 17036L   23175.62934429  .00023498  00000+0  67399-3 0  9991
2 42775  97.1511 205.4584 0011607  83.7572 276.4994 15.35809595333668
URSA MAIOR              
1 42776U 17036M   23176.07326715  .00025564  00000+0  68736-3 0  9997
2 42776  97.1522 207.2509 0011091  79.8264 280.4232 15.37812696333803
DIAMOND RED             
1 42783U 17036U   23176.03632097  .00032307  00000+0  78234-3 0  9991
2 42783  97.1498 210.5590 0009369  83.8465 276.3849 15.40990167334008
PEGASUS                 
1 42784U 17036V   23175.58493784  .00053343  00000+0  10176-2 0  9992
2 42784  97.1456 212.9109 0007938  80.5519 279.6628 15.47951762334128
DIAMOND GREEN           
1 42785U 17036W   23175.57775575  .00037723  00000+0  88202-3 0  9993
2 42785  97.1489 210.3251 0009151  86.6165 273.6129 15.42019213333937
DIAMOND BLUE            
1 42786U 17036X   23175.08550295  .00034454  00000+0  81882-3 0  9995
2 42786  97.1492 209.7797 0009432  87.2457 272.9870 15.41544837333852
SUCHAI                  
1 42788U 17036Z   23175.10495626  .00096496  00000+0  12426-2 0  9997
2 42788  97.1425 216.3144 0005890  87.1892 273.0039 15.58700830334378
SKCUBE                  
1 42789U 17036AA  23172.81992585  .00056631  00000+0  91963-3 0  9990
2 42789  97.1418 212.3911 0007496  86.3828 273.8283 15.52514419333832
ROBUSTA 1B              
1 42792U 17036AD  23176.11508816  .00095443  00000+0  13236-2 0  9991
2 42792  97.1406 216.9613 0005254  81.6874 278.4978 15.56718471334449
CICERO 6                
1 42793U 17036AE  23175.36470649  .00025708  00000+0  66087-3 0  9990
2 42793  97.1483 210.0175 0008719  86.6034 273.6209 15.39219557334003
CORVUS BC2              
1 42846U 17042X   23176.09425273  .00003187  00000+0  29787-3 0  9993
2 42846  97.3861  16.8139 0009042 176.2608 183.8683 14.94763444323903
CORVUS BC1              
1 42847U 17042Y   23175.48256827  .00002911  00000+0  27190-3 0  9993
2 42847  97.3857  16.5948 0008637 177.8001 182.3259 14.94851311323822
MIRATA                  
1 43015U 17073C   23175.65813172  .00018818  00000+0  11672-2 0  9996
2 43015  97.6332  63.2026 0211616  30.4253 330.9050 14.92981382302606
MAKERSAT 0              
1 43016U 17073D   23175.64535489  .00014343  00000+0  95381-3 0  9997
2 43016  97.6317  61.2557 0226745  39.9320 321.8330 14.88553273302413
CORVUS BC3              
1 43118U 18004H   23176.14534400  .00026079  00000+0  67869-3 0  9992
2 43118  97.3239 250.4727 0008486 116.3443 243.8674 15.38844909303266
CICERO 7                
1 43143U 18004AJ  23175.81947501  .00064511  00000+0  92146-3 0  9992
2 43143  97.3384 262.6683 0003970 110.2551 249.9131 15.56040350303945
GOMX-4B                 
1 43196U 18015E   23175.69832785  .00019429  00000+0  54239-3 0  9994
2 43196  97.5800 326.8072 0014706 175.0899 185.0491 15.36661772300105
GOMX-4A                 
1 43197U 18015F   23176.40196550  .00025995  00000+0  64968-3 0  9993
2 43197  97.5796 329.6723 0014092 167.7552 192.4039 15.40021365300367
AEROCUBE 12B            
1 43557U 18046D   23176.12967170  .00210321  00000+0  12703-2 0  9998
2 43557  51.6229 145.0081 0005434  16.1407 343.9765 15.76446280276965
CUBEBEL-1 (BSUSAT-1)    
1 43666U 18083E   23176.39964973  .00038956  00000+0  10171-2 0  9996
2 43666  97.3792 208.0495 0011210  97.3719 262.8800 15.38634584258461
CICERO 10               
1 43690U 18088A   23176.43776238  .00022628  00000+0  62726-3 0  9991
2 43690  85.0311  66.9769 0010088 186.2242 173.8885 15.36765772256740
PROXIMA I               
1 43694U 18088E   23175.14812513  .00026455  00000+0  66966-3 0  9991
2 43694  85.0239  63.4744 0013459 158.1974 201.9853 15.39517674256841
PROXIMA II              
1 43696U 18088G   23176.13753580  .00030461  00000+0  77275-3 0  9998
2 43696  85.0242  62.8508 0013762 154.9944 205.1977 15.39439377256998
SIRION PATHFINDER-2     
1 43759U 18099B   23175.66663996  .00004531  00000+0  37946-3 0  9998
2 43759  97.5739 237.1397 0015504  90.1285 270.1715 14.98822983248744
CORVUS BC4              
1 43767U 18099K   23176.43508707  .00005115  00000+0  43438-3 0  9993
2 43767  97.5650 235.8265 0012392  97.2835 262.9797 14.98261411248769
MOVE-II                 
1 43780U 18099Y   23175.68935033  .00011470  00000+0  83478-3 0  9999
2 43780  97.5702 239.5576 0010731 124.0918 236.1328 15.03905057248866
SPACEBEE-7              
1 43816U 18099BL  23176.40780568  .00009934  00000+0  74749-3 0  9994
2 43816  97.5939 241.0877 0012580  71.8727 288.3867 15.02667704248546
SPACEBEE-5              
1 43817U 18099BM  23176.13993227  .00048215  00000+0  23616-2 0  9994
2 43817  97.5910 248.2213 0004091  83.1663 277.0036 15.17984662248906
SPACEBEE-6              
1 43818U 18099BN  23175.14598402  .00015112  00000+0  10312-2 0  9990
2 43818  97.5874 241.9196 0013116  93.1586 267.1142 15.06230880248619
SHIELDS 1               
1 43850U 18104B   23175.48179512  .00008911  00000+0  31782-3 0  9991
2 43850  85.0269 164.6004 0011655 341.9480  18.1350 15.28664260251220
STF-1                   
1 43852U 18104D   23176.44860005  .00042992  00000+0  95291-3 0  9996
2 43852  85.0243 161.5838 0007313 346.0136  14.0914 15.43549596251676
ZACUBE-2                
1 43907U 18111AH  23176.45035651  .00030506  00000+0  73676-3 0  9998
2 43907  97.1371  55.8632 0015064 174.7267 185.4142 15.41008882250427
LUME 1                  
1 43908U 18111AJ  23176.10254778  .00044740  00000+0  87874-3 0  9994
2 43908  97.1384  59.2484 0013550 160.4670 199.7102 15.47081112250611
MOVE-IIB                
1 44398U 19038N   23175.95500148  .00059440  00000+0  14100-2 0  9998
2 44398  97.6597 159.1409 0010432 250.5033 109.5086 15.41464981219868
SONATE                  
1 44400U 19038Q   23175.66355123  .00012368  00000+0  55046-3 0  9994
2 44400  97.6844 153.4633 0018391 287.1392  72.7829 15.21472172219370
LUCKY-7                 
1 44406U 19038W   23175.92917405  .00015598  00000+0  63731-3 0  9994
2 44406  97.6807 155.0422 0016539 279.9185  80.0184 15.24346568219503
BEESAT 9                
1 44412U 19038AC  23175.99288939  .00027050  00000+0  91899-3 0  9993
2 44412  97.6740 156.8891 0012599 276.5323  83.4483 15.30377714219350
JAISAT-1                
1 44419U 19038F   23175.67957933  .00028261  00000+0  95157-3 0  9998
2 44419  97.6737 157.6514 0011804 273.2911  86.6979 15.30668623219682
DUCHIFAT-3              
1 44854U 19089C   23176.02875139  .00009231  00000+0  61882-3 0  9998
2 44854  36.9631  44.4195 0008802   9.7083 350.3830 15.06383633194012
EYESAT-NANO             
1 44877U 19092E   23176.04562429  .00064413  00000+0  14434-2 0  9997
2 44877  97.4579   6.6566 0007788 115.9338 244.2713 15.43177077195316
M2 PATHFINDER           
1 45727U 20037E   23176.43385175  .00004112  00000+0  38971-3 0  9990
2 45727  97.7583 351.0547 0010929 232.0598 127.9635 14.94097179162475
NETSAT-4                
1 46504U 20068U   23172.82401605  .00005378  00000+0  35642-3 0  9991
2 46504  97.7631 118.6792 0012174 145.7373 214.4642 15.07663542149605
NETSAT-3                
1 46505U 20068V   23172.85779764  .00006087  00000+0  40476-3 0  9998
2 46505  97.7618 118.5340 0010915 153.2632 206.9160 15.07495447149611
NETSAT-1                
1 46506U 20068W   23172.83541765  .00004621  00000+0  31108-3 0  9999
2 46506  97.7629 118.3892 0009153 159.3423 200.8176 15.07188226149604
NETSAT-2                
1 46507U 20068X   23172.82218988  .00005424  00000+0  36039-3 0  9997
2 46507  97.7618 118.4207 0008245 165.4184 194.7283 15.07597617149559
SAI-1 NANOCONNECT-2     
1 47701U 21015C   23176.46372573  .00066131  00000+0  11894-2 0  9995
2 47701  97.3847 259.9564 0008049 193.7951 166.3081 15.49585769129438
